{
"type": "FeatureCollection",
"name": "trav_county",
"features": [
{ "type": "Feature", "properties": { "STATEFP": 48, "COUNTYFP": 453, "COUNTYNS": 1384012, "AFFGEOID": "0500000US48453", "GEOID": 48453, "NAME": "Travis", "LSAD": 6, "ALAND": 2569073026, "AWATER": 80592292 }, "geometry": { "type": "MultiPolygon", "coordinates": [ [ [ [ -98.125556, 30.426186 ], [ -98.12342, 30.486482 ], [ -98.049886, 30.624155 ], [ -97.956734, 30.628249 ], [ -97.857505, 30.50161 ], [ -97.848384, 30.472662 ], [ -97.773458, 30.430654 ], [ -97.596236, 30.501513 ], [ -97.369539, 30.419563 ], [ -97.400089, 30.367906 ], [ -97.491254, 30.21211 ], [ -97.49135, 30.21193 ], [ -97.64937, 30.067944 ], [ -97.665761, 30.063862 ], [ -97.710215, 30.024499 ], [ -97.781369, 30.07567 ], [ -97.813018, 30.098613 ], [ -97.857161, 30.131196 ], [ -97.857222, 30.13124 ], [ -98.172977, 30.356312 ], [ -98.125556, 30.426186 ] ] ] ] } }
]
}
